SL-14 R/B               
1 21423U 91042B   25361.16582882  .00000549  00000+0  66415-4 0  9998
2 21423  82.4937 288.1964 0018443 116.9080 243.4022 14.81752245842336
ERS-1                   
1 21574U 91050A   25361.05691999  .00000408  00000+0  14507-3 0  9990
2 21574  98.7901  12.4695 0032860  58.8705 301.5698 14.39376061805289
ARIANE 40 R/B           
1 21610U 91050F   25361.14177397  .00000399  00000+0  13221-3 0  9993
2 21610  98.2147  51.0513 0002039 305.2856  54.8143 14.42825066808538
INTERCOSMOS 25          
1 21819U 91086A   25361.00098226  .00002075  00000+0  41311-3 0  9995
2 21819  82.6082 353.9489 1486281 273.6405  69.6495 12.11785052487883
SL-8 R/B                
1 21876U 92008B   25361.13985235  .00000147  00000+0  13535-3 0  9997
2 21876  82.9275 321.7353 0034270 339.7007  30.5868 13.75962235699443
SL-8 R/B                
1 21938U 92020B   25361.10880263  .00000165  00000+0  15479-3 0  9991
2 21938  82.9289 207.6471 0029776 138.5658 335.5754 13.75531016691153
USA 81                  
1 21949U 92023A   25360.93609284  .00000247  00000+0  84181-4 0  9996
2 21949  85.0081 173.3885 0001087  92.3876 267.7441 14.32332231 84372
COSMOS 2219             
1 22219U 92076A   25360.94321838  .00000393  00000+0  23076-3 0  9999
2 22219  71.0582 170.1408 0019481 307.3173  52.6174 14.14069433708093
SL-16 R/B               
1 22220U 92076B   25361.19423360 -.00000033  00000+0  74129-5 0  9991
2 22220  71.0011 341.0829 0014078 214.8455 226.3789 14.16845862711568
COSMOS 2221             
1 22236U 92080A   25360.99984372  .00002681  00000+0  23732-3 0  9997
2 22236  82.5046 348.6751 0016335  78.3171 281.9883 14.95818475769925
SL-16 R/B               
1 22285U 92093B   25361.16094757 -.00000104  00000+0 -28914-4 0  9992
2 22285  71.0209 156.5229 0002643  27.0747 333.0513 14.15435342702898
COSMOS 2228             
1 22286U 92094A   25361.13050564  .00003200  00000+0  27651-3 0  9993
2 22286  82.5189 306.7649 0017735 180.4831 179.6377 14.96797059765205
