CCSDS_OMM_VERS = 2.0
CREATION_DATE  = 
ORIGINATOR     = 

OBJECT_NAME    = SL-14 R/B
OBJECT_ID      = 1991-042B
CENTER_NAME    = EARTH
REF_FRAME      = TEME
TIME_SYSTEM    = UTC
MEAN_ELEMENT_THEORY = SGP/SGP4

EPOCH          = 2025-12-27T03:58:47.610048
MEAN_MOTION    = 14.81752245
ECCENTRICITY   = .0018443
INCLINATION    = 82.4937
RA_OF_ASC_NODE = 288.1964
ARG_OF_PERICENTER = 116.9080
MEAN_ANOMALY   = 243.4022

EPHEMERIS_TYPE = 0
CLASSIFICATION_TYPE = U
NORAD_CAT_ID   = 21423
ELEMENT_SET_NO = 999
REV_AT_EPOCH   = 84233
BSTAR          = .66415E-4
MEAN_MOTION_DOT = .549E-5
MEAN_MOTION_DDOT = 0

CCSDS_OMM_VERS = 2.0
CREATION_DATE  = 
ORIGINATOR     = 

OBJECT_NAME    = ERS-1
OBJECT_ID      = 1991-050A
CENTER_NAME    = EARTH
REF_FRAME      = TEME
TIME_SYSTEM    = UTC
MEAN_ELEMENT_THEORY = SGP/SGP4

EPOCH          = 2025-12-27T01:21:57.887136
MEAN_MOTION    = 14.39376061
ECCENTRICITY   = .003286
INCLINATION    = 98.7901
RA_OF_ASC_NODE = 12.4695
ARG_OF_PERICENTER = 58.8705
MEAN_ANOMALY   = 301.5698

EPHEMERIS_TYPE = 0
CLASSIFICATION_TYPE = U
NORAD_CAT_ID   = 21574
ELEMENT_SET_NO = 999
REV_AT_EPOCH   = 80528
BSTAR          = .14507E-3
MEAN_MOTION_DOT = .408E-5
MEAN_MOTION_DDOT = 0

CCSDS_OMM_VERS = 2.0
CREATION_DATE  = 
ORIGINATOR     = 

OBJECT_NAME    = ARIANE 40 R/B
OBJECT_ID      = 1991-050F
CENTER_NAME    = EARTH
REF_FRAME      = TEME
TIME_SYSTEM    = UTC
MEAN_ELEMENT_THEORY = SGP/SGP4

EPOCH          = 2025-12-27T03:24:09.271008
MEAN_MOTION    = 14.42825066
ECCENTRICITY   = .0002039
INCLINATION    = 98.2147
RA_OF_ASC_NODE = 51.0513
ARG_OF_PERICENTER = 305.2856
MEAN_ANOMALY   = 54.8143

EPHEMERIS_TYPE = 0
CLASSIFICATION_TYPE = U
NORAD_CAT_ID   = 21610
ELEMENT_SET_NO = 999
REV_AT_EPOCH   = 80853
BSTAR          = .13221E-3
MEAN_MOTION_DOT = .399E-5
MEAN_MOTION_DDOT = 0

CCSDS_OMM_VERS = 2.0
CREATION_DATE  = 
ORIGINATOR     = 

OBJECT_NAME    = INTERCOSMOS 25
OBJECT_ID      = 1991-086A
CENTER_NAME    = EARTH
REF_FRAME      = TEME
TIME_SYSTEM    = UTC
MEAN_ELEMENT_THEORY = SGP/SGP4

EPOCH          = 2025-12-27T00:01:24.867264
MEAN_MOTION    = 12.11785052
ECCENTRICITY   = .1486281
INCLINATION    = 82.6082
RA_OF_ASC_NODE = 353.9489
ARG_OF_PERICENTER = 273.6405
MEAN_ANOMALY   = 69.6495

EPHEMERIS_TYPE = 0
CLASSIFICATION_TYPE = U
NORAD_CAT_ID   = 21819
ELEMENT_SET_NO = 999
REV_AT_EPOCH   = 48788
BSTAR          = .41311E-3
MEAN_MOTION_DOT = .2075E-4
MEAN_MOTION_DDOT = 0

CCSDS_OMM_VERS = 2.0
CREATION_DATE  = 
ORIGINATOR     = 

OBJECT_NAME    = SL-8 R/B
OBJECT_ID      = 1992-008B
CENTER_NAME    = EARTH
REF_FRAME      = TEME
TIME_SYSTEM    = UTC
MEAN_ELEMENT_THEORY = SGP/SGP4

EPOCH          = 2025-12-27T03:21:23.243040
MEAN_MOTION    = 13.75962235
ECCENTRICITY   = .003427
INCLINATION    = 82.9275
RA_OF_ASC_NODE = 321.7353
ARG_OF_PERICENTER = 339.7007
MEAN_ANOMALY   = 30.5868

EPHEMERIS_TYPE = 0
CLASSIFICATION_TYPE = U
NORAD_CAT_ID   = 21876
ELEMENT_SET_NO = 999
REV_AT_EPOCH   = 69944
BSTAR          = .13535E-3
MEAN_MOTION_DOT = .147E-5
MEAN_MOTION_DDOT = 0

CCSDS_OMM_VERS = 2.0
CREATION_DATE  = 
ORIGINATOR     = 

OBJECT_NAME    = SL-8 R/B
OBJECT_ID      = 1992-020B
CENTER_NAME    = EARTH
REF_FRAME      = TEME
TIME_SYSTEM    = UTC
MEAN_ELEMENT_THEORY = SGP/SGP4

EPOCH          = 2025-12-27T02:36:40.547232
MEAN_MOTION    = 13.75531016
ECCENTRICITY   = .0029776
INCLINATION    = 82.9289
RA_OF_ASC_NODE = 207.6471
ARG_OF_PERICENTER = 138.5658
MEAN_ANOMALY   = 335.5754

EPHEMERIS_TYPE = 0
CLASSIFICATION_TYPE = U
NORAD_CAT_ID   = 21938
ELEMENT_SET_NO = 999
REV_AT_EPOCH   = 69115
BSTAR          = .15479E-3
MEAN_MOTION_DOT = .165E-5
MEAN_MOTION_DDOT = 0

CCSDS_OMM_VERS = 2.0
CREATION_DATE  = 
ORIGINATOR     = 

OBJECT_NAME    = USA 81
OBJECT_ID      = 1992-023A
CENTER_NAME    = EARTH
REF_FRAME      = TEME
TIME_SYSTEM    = UTC
MEAN_ELEMENT_THEORY = SGP/SGP4

EPOCH          = 2025-12-26T22:27:58.421376
MEAN_MOTION    = 14.32332231
ECCENTRICITY   = .0001087
INCLINATION    = 85.0081
RA_OF_ASC_NODE = 173.3885
ARG_OF_PERICENTER = 92.3876
MEAN_ANOMALY   = 267.7441

EPHEMERIS_TYPE = 0
CLASSIFICATION_TYPE = U
NORAD_CAT_ID   = 21949
ELEMENT_SET_NO = 999
REV_AT_EPOCH   = 8437
BSTAR          = .84181E-4
MEAN_MOTION_DOT = .247E-5
MEAN_MOTION_DDOT = 0

CCSDS_OMM_VERS = 2.0
CREATION_DATE  = 
ORIGINATOR     = 

OBJECT_NAME    = COSMOS 2219
OBJECT_ID      = 1992-076A
CENTER_NAME    = EARTH
REF_FRAME      = TEME
TIME_SYSTEM    = UTC
MEAN_ELEMENT_THEORY = SGP/SGP4

EPOCH          = 2025-12-26T22:38:14.068032
MEAN_MOTION    = 14.14069433
ECCENTRICITY   = .0019481
INCLINATION    = 71.0582
RA_OF_ASC_NODE = 170.1408
ARG_OF_PERICENTER = 307.3173
MEAN_ANOMALY   = 52.6174

EPHEMERIS_TYPE = 0
CLASSIFICATION_TYPE = U
NORAD_CAT_ID   = 22219
ELEMENT_SET_NO = 999
REV_AT_EPOCH   = 70809
BSTAR          = .23076E-3
MEAN_MOTION_DOT = .393E-5
MEAN_MOTION_DDOT = 0

CCSDS_OMM_VERS = 2.0
CREATION_DATE  = 
ORIGINATOR     = 

OBJECT_NAME    = SL-16 R/B
OBJECT_ID      = 1992-076B
CENTER_NAME    = EARTH
REF_FRAME      = TEME
TIME_SYSTEM    = UTC
MEAN_ELEMENT_THEORY = SGP/SGP4

EPOCH          = 2025-12-27T04:39:41.783040
MEAN_MOTION    = 14.16845862
ECCENTRICITY   = .0014078
INCLINATION    = 71.0011
RA_OF_ASC_NODE = 341.0829
ARG_OF_PERICENTER = 214.8455
MEAN_ANOMALY   = 226.3789

EPHEMERIS_TYPE = 0
CLASSIFICATION_TYPE = U
NORAD_CAT_ID   = 22220
ELEMENT_SET_NO = 999
REV_AT_EPOCH   = 71156
BSTAR          = .74129E-5
MEAN_MOTION_DOT = -.33E-6
MEAN_MOTION_DDOT = 0

CCSDS_OMM_VERS = 2.0
CREATION_DATE  = 
ORIGINATOR     = 

OBJECT_NAME    = COSMOS 2221
OBJECT_ID      = 1992-080A
CENTER_NAME    = EARTH
REF_FRAME      = TEME
TIME_SYSTEM    = UTC
MEAN_ELEMENT_THEORY = SGP/SGP4

EPOCH          = 2025-12-26T23:59:46.497408
MEAN_MOTION    = 14.95818475
ECCENTRICITY   = .0016335
INCLINATION    = 82.5046
RA_OF_ASC_NODE = 348.6751
ARG_OF_PERICENTER = 78.3171
MEAN_ANOMALY   = 281.9883

EPHEMERIS_TYPE = 0
CLASSIFICATION_TYPE = U
NORAD_CAT_ID   = 22236
ELEMENT_SET_NO = 999
REV_AT_EPOCH   = 76992
BSTAR          = .23732E-3
MEAN_MOTION_DOT = .2681E-4
MEAN_MOTION_DDOT = 0

CCSDS_OMM_VERS = 2.0
CREATION_DATE  = 
ORIGINATOR     = 

OBJECT_NAME    = SL-16 R/B
OBJECT_ID      = 1992-093B
CENTER_NAME    = EARTH
REF_FRAME      = TEME
TIME_SYSTEM    = UTC
MEAN_ELEMENT_THEORY = SGP/SGP4

EPOCH          = 2025-12-27T03:51:45.870048
MEAN_MOTION    = 14.15435342
ECCENTRICITY   = .0002643
INCLINATION    = 71.0209
RA_OF_ASC_NODE = 156.5229
ARG_OF_PERICENTER = 27.0747
MEAN_ANOMALY   = 333.0513

EPHEMERIS_TYPE = 0
CLASSIFICATION_TYPE = U
NORAD_CAT_ID   = 22285
ELEMENT_SET_NO = 999
REV_AT_EPOCH   = 70289
BSTAR          = -.28914E-4
MEAN_MOTION_DOT = -.104E-5
MEAN_MOTION_DDOT = 0

CCSDS_OMM_VERS = 2.0
CREATION_DATE  = 
ORIGINATOR     = 

OBJECT_NAME    = COSMOS 2228
OBJECT_ID      = 1992-094A
CENTER_NAME    = EARTH
REF_FRAME      = TEME
TIME_SYSTEM    = UTC
MEAN_ELEMENT_THEORY = SGP/SGP4

EPOCH          = 2025-12-27T03:07:55.687296
MEAN_MOTION    = 14.96797059
ECCENTRICITY   = .0017735
INCLINATION    = 82.5189
RA_OF_ASC_NODE = 306.7649
ARG_OF_PERICENTER = 180.4831
MEAN_ANOMALY   = 179.6377

EPHEMERIS_TYPE = 0
CLASSIFICATION_TYPE = U
NORAD_CAT_ID   = 22286
ELEMENT_SET_NO = 999
REV_AT_EPOCH   = 76520
BSTAR          = .27651E-3
MEAN_MOTION_DOT = .32E-4
MEAN_MOTION_DDOT = 0

